FLOCK 4Y-8              
1 55071U 23001BQ  23102.10276101  .00011979  00000+0  61304-3 0  9993
2 55071  97.4855 162.7546 0014196 234.9714 125.0188 15.16687798 15065
FLOCK 4Y-2              
1 55074U 23001BT  23102.15185780  .00018986  00000+0  96728-3 0  9996
2 55074  97.4858 162.8834 0013664 237.9269 122.0638 15.16746375 15074
FLOCK 4Y-31             
1 55075U 23001BU  23102.15588630  .00009369  00000+0  48100-3 0  9994
2 55075  97.4828 162.8263 0014210 229.8071 130.1919 15.16640447 15072
FLOCK 4Y-21             
1 55077U 23001BW  23102.15366649  .00009066  00000+0  46567-3 0  9999
2 55077  97.4872 162.8871 0013927 236.1413 123.8496 15.16638000 15074
FLOCK 4Y-36             
1 55078U 23001BX  23102.15829308  .00028502  00000+0  14524-2 0  9999
2 55078  97.4846 162.8418 0013984 236.7803 123.2090 15.16648074 15071
FLOCK 4Y-13             
1 55079U 23001BY  23102.16035585  .00014113  00000+0  72490-3 0  9997
2 55079  97.4871 162.8660 0014168 235.3796 124.6102 15.16518651 15076
FLOCK 4Y-23             
1 55080U 23001BZ  23102.15007996  .00009100  00000+0  46582-3 0  9996
2 55080  97.4832 162.8433 0014388 232.3109 127.6820 15.16753236 15072
FLOCK 4Y-34             
1 55082U 23001CB  23102.14860701  .00013391  00000+0  68193-3 0  9997
2 55082  97.4825 162.8552 0014242 233.4832 126.5090 15.16832314 15074
FLOCK 4Y-27             
1 55083U 23001CC  23102.48652404  .00013507  00000+0  68437-3 0  9994
2 55083  97.4841 163.1655 0014576 231.8289 128.1632 15.17004061 15126
